[{"OBJECT_NAME":"STARLINK-6179","OBJECT_ID":"2023-083AL","EPOCH":"2025-09-12T13:33:09.235872","MEAN_MOTION":15.0253581,"ECCENTRICITY":0.00013082,"INCLINATION":43.0046,"RA_OF_ASC_NODE":316.8427,"ARG_OF_PERICENTER":270.4302,"MEAN_ANOMALY":89.6391,"EPHEMERIS_TYPE":0,"CLASSIFICATION_TYPE":"U","NORAD_CAT_ID":56910,"ELEMENT_SET_NO":999,"REV_AT_EPOCH":12502,"BSTAR":7.559635e-6,"MEAN_MOTION_DOT":-1.02e-6,"MEAN_MOTION_DDOT":0},{"OBJECT_NAME":"STARLINK-6116","OBJECT_ID":"2023-083AM","EPOCH":"2025-09-10T21:57:31.894272","MEAN_MOTION":15.02531857,"ECCENTRICITY":0.00011131,"INCLINATION":43.0047,"RA_OF_ASC_NODE":325.9629,"ARG_OF_PERICENTER":272.3242,"MEAN_ANOMALY":87.7473,"EPHEMERIS_TYPE":0,"CLASSIFICATION_TYPE":"U","NORAD_CAT_ID":56911,"ELEMENT_SET_NO":999,"REV_AT_EPOCH":12477,"BSTAR":6.2940746e-5,"MEAN_MOTION_DOT":6.47e-6,"MEAN_MOTION_DDOT":0},{"OBJECT_NAME":"STARLINK-5805","OBJECT_ID":"2023-083AN","EPOCH":"2025-09-12T13:26:45.516192","MEAN_MOTION":15.02534585,"ECCENTRICITY":0.00012393,"INCLINATION":43.0041,"RA_OF_ASC_NODE":316.8088,"ARG_OF_PERICENTER":269.9359,"MEAN_ANOMALY":90.1342,"EPHEMERIS_TYPE":0,"CLASSIFICATION_TYPE":"U","NORAD_CAT_ID":56912,"ELEMENT_SET_NO":999,"REV_AT_EPOCH":12502,"BSTAR":4.755982e-6,"MEAN_MOTION_DOT":-1.39e-6,"MEAN_MOTION_DDOT":0},{"OBJECT_NAME":"STARLINK-5950","OBJECT_ID":"2023-083AP","EPOCH":"2025-09-12T10:34:29.307072","MEAN_MOTION":15.02533256,"ECCENTRICITY":0.00015436,"INCLINATION":43.0056,"RA_OF_ASC_NODE":317.6292,"ARG_OF_PERICENTER":267.9255,"MEAN_ANOMALY":92.1411,"EPHEMERIS_TYPE":0,"CLASSIFICATION_TYPE":"U","NORAD_CAT_ID":56913,"ELEMENT_SET_NO":999,"REV_AT_EPOCH":12500,"BSTAR":-4.4590185e-5,"MEAN_MOTION_DOT":-8.06e-6,"MEAN_MOTION_DDOT":0},{"OBJECT_NAME":"STARLINK-5961","OBJECT_ID":"2023-083AQ","EPOCH":"2025-09-12T11:41:26.824128","MEAN_MOTION":15.02532598,"ECCENTRICITY":0.00012898,"INCLINATION":43.0039,"RA_OF_ASC_NODE":317.1185,"ARG_OF_PERICENTER":270.6649,"MEAN_ANOMALY":89.4045,"EPHEMERIS_TYPE":0,"CLASSIFICATION_TYPE":"U","NORAD_CAT_ID":56914,"ELEMENT_SET_NO":999,"REV_AT_EPOCH":12501,"BSTAR":-2.6054896e-5,"MEAN_MOTION_DOT":-5.56e-6,"MEAN_MOTION_DDOT":0},{"OBJECT_NAME":"STARLINK-5965","OBJECT_ID":"2023-083AR","EPOCH":"2025-09-11T12:04:41.263968","MEAN_MOTION":15.02559793,"ECCENTRICITY":0.0001368,"INCLINATION":43.0035,"RA_OF_ASC_NODE":322.6375,"ARG_OF_PERICENTER":267.7754,"MEAN_ANOMALY":92.2931,"EPHEMERIS_TYPE":0,"CLASSIFICATION_TYPE":"U","NORAD_CAT_ID":56915,"ELEMENT_SET_NO":999,"REV_AT_EPOCH":12486,"BSTAR":-0.00036973791,"MEAN_MOTION_DOT":-5.198e-5,"MEAN_MOTION_DDOT":0},{"OBJECT_NAME":"STARLINK-5973","OBJECT_ID":"2023-083AS","EPOCH":"2025-09-12T12:53:11.395680","MEAN_MOTION":15.02555362,"ECCENTRICITY":9.17e-5,"INCLINATION":43.0046,"RA_OF_ASC_NODE":316.6354,"ARG_OF_PERICENTER":285.0944,"MEAN_ANOMALY":74.9797,"EPHEMERIS_TYPE":0,"CLASSIFICATION_TYPE":"U","NORAD_CAT_ID":56916,"ELEMENT_SET_NO":999,"REV_AT_EPOCH":12499,"BSTAR":-0.00025088291,"MEAN_MOTION_DOT":-3.593e-5,"MEAN_MOTION_DDOT":0},{"OBJECT_NAME":"STARLINK-5971","OBJECT_ID":"2023-083AT","EPOCH":"2025-09-12T13:21:57.936384","MEAN_MOTION":15.0253556,"ECCENTRICITY":0.00012599,"INCLINATION":43.0031,"RA_OF_ASC_NODE":316.7809,"ARG_OF_PERICENTER":268.4575,"MEAN_ANOMALY":91.6123,"EPHEMERIS_TYPE":0,"CLASSIFICATION_TYPE":"U","NORAD_CAT_ID":56917,"ELEMENT_SET_NO":999,"REV_AT_EPOCH":12502,"BSTAR":8.115674e-6,"MEAN_MOTION_DOT":-9.4e-7,"MEAN_MOTION_DDOT":0},{"OBJECT_NAME":"STARLINK-5951","OBJECT_ID":"2023-083AU","EPOCH":"2025-09-12T11:31:51.349152","MEAN_MOTION":15.02540652,"ECCENTRICITY":0.00012344,"INCLINATION":43.004,"RA_OF_ASC_NODE":317.068,"ARG_OF_PERICENTER":268.5775,"MEAN_ANOMALY":91.4926,"EPHEMERIS_TYPE":0,"CLASSIFICATION_TYPE":"U","NORAD_CAT_ID":56918,"ELEMENT_SET_NO":999,"REV_AT_EPOCH":12501,"BSTAR":-0.00012850635,"MEAN_MOTION_DOT":-1.939e-5,"MEAN_MOTION_DDOT":0},{"OBJECT_NAME":"STARLINK-5966","OBJECT_ID":"2023-083AV","EPOCH":"2025-09-12T11:38:14.838144","MEAN_MOTION":15.02533691,"ECCENTRICITY":0.00010605,"INCLINATION":43.0037,"RA_OF_ASC_NODE":317.1013,"ARG_OF_PERICENTER":259.6432,"MEAN_ANOMALY":100.4291,"EPHEMERIS_TYPE":0,"CLASSIFICATION_TYPE":"U","NORAD_CAT_ID":56919,"ELEMENT_SET_NO":999,"REV_AT_EPOCH":12501,"BSTAR":2.6257724e-5,"MEAN_MOTION_DOT":1.51e-6,"MEAN_MOTION_DDOT":0},{"OBJECT_NAME":"STARLINK-5960","OBJECT_ID":"2023-083AW","EPOCH":"2025-09-12T12:57:59.199264","MEAN_MOTION":15.02536417,"ECCENTRICITY":0.00013512,"INCLINATION":43.004,"RA_OF_ASC_NODE":316.6535,"ARG_OF_PERICENTER":271.9262,"MEAN_ANOMALY":88.1425,"EPHEMERIS_TYPE":0,"CLASSIFICATION_TYPE":"U","NORAD_CAT_ID":56920,"ELEMENT_SET_NO":999,"REV_AT_EPOCH":12502,"BSTAR":3.019877e-5,"MEAN_MOTION_DOT":2.04e-6,"MEAN_MOTION_DDOT":0},{"OBJECT_NAME":"STARLINK-5958","OBJECT_ID":"2023-083AX","EPOCH":"2025-09-12T11:36:38.985984","MEAN_MOTION":15.02533046,"ECCENTRICITY":0.00013646,"INCLINATION":43.004,"RA_OF_ASC_NODE":317.0938,"ARG_OF_PERICENTER":267.3061,"MEAN_ANOMALY":92.7626,"EPHEMERIS_TYPE":0,"CLASSIFICATION_TYPE":"U","NORAD_CAT_ID":56921,"ELEMENT_SET_NO":999,"REV_AT_EPOCH":12501,"BSTAR":-3.04179e-7,"MEAN_MOTION_DOT":-2.08e-6,"MEAN_MOTION_DDOT":0},{"OBJECT_NAME":"STARLINK-5937","OBJECT_ID":"2023-083AY","EPOCH":"2025-09-12T12:38:49.018272","MEAN_MOTION":15.02531306,"ECCENTRICITY":0.00013484,"INCLINATION":43.0043,"RA_OF_ASC_NODE":316.5592,"ARG_OF_PERICENTER":270.8427,"MEAN_ANOMALY":89.2261,"EPHEMERIS_TYPE":0,"CLASSIFICATION_TYPE":"U","NORAD_CAT_ID":56922,"ELEMENT_SET_NO":999,"REV_AT_EPOCH":12502,"BSTAR":-1.8695082e-5,"MEAN_MOTION_DOT":-4.56e-6,"MEAN_MOTION_DDOT":0},{"OBJECT_NAME":"STARLINK-5952","OBJECT_ID":"2023-083AZ","EPOCH":"2025-09-11T11:31:08.150016","MEAN_MOTION":15.02536402,"ECCENTRICITY":0.000112,"INCLINATION":43.004,"RA_OF_ASC_NODE":322.4621,"ARG_OF_PERICENTER":270.132,"MEAN_ANOMALY":89.9394,"EPHEMERIS_TYPE":0,"CLASSIFICATION_TYPE":"U","NORAD_CAT_ID":56923,"ELEMENT_SET_NO":999,"REV_AT_EPOCH":12486,"BSTAR":2.0022075e-5,"MEAN_MOTION_DOT":6.7e-7,"MEAN_MOTION_DDOT":0},{"OBJECT_NAME":"STARLINK-5731","OBJECT_ID":"2023-083BA","EPOCH":"2025-09-12T14:16:08.561856","MEAN_MOTION":15.02531434,"ECCENTRICITY":0.00012499,"INCLINATION":43.0044,"RA_OF_ASC_NODE":316.2046,"ARG_OF_PERICENTER":269.2748,"MEAN_ANOMALY":90.7951,"EPHEMERIS_TYPE":0,"CLASSIFICATION_TYPE":"U","NORAD_CAT_ID":56924,"ELEMENT_SET_NO":999,"REV_AT_EPOCH":12514,"BSTAR":2.2783025e-5,"MEAN_MOTION_DOT":1.04e-6,"MEAN_MOTION_DDOT":0},{"OBJECT_NAME":"STARLINK-5733","OBJECT_ID":"2023-083BB","EPOCH":"2025-09-12T12:43:36.258528","MEAN_MOTION":15.02535521,"ECCENTRICITY":0.00013827,"INCLINATION":43.0038,"RA_OF_ASC_NODE":316.5798,"ARG_OF_PERICENTER":256.2725,"MEAN_ANOMALY":103.7964,"EPHEMERIS_TYPE":0,"CLASSIFICATION_TYPE":"U","NORAD_CAT_ID":56925,"ELEMENT_SET_NO":999,"REV_AT_EPOCH":12502,"BSTAR":2.940374e-5,"MEAN_MOTION_DOT":1.94e-6,"MEAN_MOTION_DDOT":0},{"OBJECT_NAME":"STARLINK-5746","OBJECT_ID":"2023-083BC","EPOCH":"2025-09-12T12:48:23.745888","MEAN_MOTION":15.02530417,"ECCENTRICITY":0.00013852,"INCLINATION":43.0043,"RA_OF_ASC_NODE":316.6066,"ARG_OF_PERICENTER":268.2528,"MEAN_ANOMALY":91.8156,"EPHEMERIS_TYPE":0,"CLASSIFICATION_TYPE":"U","NORAD_CAT_ID":56926,"ELEMENT_SET_NO":999,"REV_AT_EPOCH":12502,"BSTAR":7.326346e-5,"MEAN_MOTION_DOT":7.86e-6,"MEAN_MOTION_DDOT":0},{"OBJECT_NAME":"STARLINK-5808","OBJECT_ID":"2023-083BD","EPOCH":"2025-09-12T05:02:15.251136","MEAN_MOTION":15.02535471,"ECCENTRICITY":0.00010944,"INCLINATION":43.0031,"RA_OF_ASC_NODE":229.0221,"ARG_OF_PERICENTER":273.0084,"MEAN_ANOMALY":87.0633,"EPHEMERIS_TYPE":0,"CLASSIFICATION_TYPE":"U","NORAD_CAT_ID":56927,"ELEMENT_SET_NO":999,"REV_AT_EPOCH":12600,"BSTAR":-1.3900526e-5,"MEAN_MOTION_DOT":-3.91e-6,"MEAN_MOTION_DDOT":0},{"OBJECT_NAME":"STARLINK-5850","OBJECT_ID":"2023-088B","EPOCH":"2025-09-12T14:05:32.030592","MEAN_MOTION":15.02534627,"ECCENTRICITY":0.00012015,"INCLINATION":43.0059,"RA_OF_ASC_NODE":355.6535,"ARG_OF_PERICENTER":267.4294,"MEAN_ANOMALY":92.6411,"EPHEMERIS_TYPE":0,"CLASSIFICATION_TYPE":"U","NORAD_CAT_ID":57049,"ELEMENT_SET_NO":999,"REV_AT_EPOCH":12376,"BSTAR":1.5576407e-5,"MEAN_MOTION_DOT":7.0e-8,"MEAN_MOTION_DDOT":0},{"OBJECT_NAME":"STARLINK-5845","OBJECT_ID":"2023-088C","EPOCH":"2025-09-12T13:39:57.775680","MEAN_MOTION":15.02532663,"ECCENTRICITY":0.00012562,"INCLINATION":43.0045,"RA_OF_ASC_NODE":355.5204,"ARG_OF_PERICENTER":265.7857,"MEAN_ANOMALY":94.2842,"EPHEMERIS_TYPE":0,"CLASSIFICATION_TYPE":"U","NORAD_CAT_ID":57050,"ELEMENT_SET_NO":999,"REV_AT_EPOCH":12357,"BSTAR":-8.0395094e-5,"MEAN_MOTION_DOT":-1.289e-5,"MEAN_MOTION_DDOT":0},{"OBJECT_NAME":"STARLINK-5839","OBJECT_ID":"2023-088D","EPOCH":"2025-09-12T13:44:45.511008","MEAN_MOTION":15.02533199,"ECCENTRICITY":0.0001494,"INCLINATION":43.0071,"RA_OF_ASC_NODE":355.5446,"ARG_OF_PERICENTER":270.0825,"MEAN_ANOMALY":89.9846,"EPHEMERIS_TYPE":0,"CLASSIFICATION_TYPE":"U","NORAD_CAT_ID":57051,"ELEMENT_SET_NO":999,"REV_AT_EPOCH":12357,"BSTAR":7.684637e-6,"MEAN_MOTION_DOT":-1.0e-6,"MEAN_MOTION_DDOT":0},{"OBJECT_NAME":"STARLINK-5860","OBJECT_ID":"2023-088E","EPOCH":"2025-09-12T13:49:33.020832","MEAN_MOTION":15.0253468,"ECCENTRICITY":0.00014271,"INCLINATION":43.0049,"RA_OF_ASC_NODE":355.5686,"ARG_OF_PERICENTER":268.8161,"MEAN_ANOMALY":91.2518,"EPHEMERIS_TYPE":0,"CLASSIFICATION_TYPE":"U","NORAD_CAT_ID":57052,"ELEMENT_SET_NO":999,"REV_AT_EPOCH":12357,"BSTAR":6.800461e-6,"MEAN_MOTION_DOT":-1.12e-6,"MEAN_MOTION_DDOT":0},{"OBJECT_NAME":"STARLINK-5865","OBJECT_ID":"2023-088F","EPOCH":"2025-09-12T13:25:34.180896","MEAN_MOTION":15.02535959,"ECCENTRICITY":0.00011468,"INCLINATION":43.0049,"RA_OF_ASC_NODE":355.443,"ARG_OF_PERICENTER":269.7196,"MEAN_ANOMALY":90.3515,"EPHEMERIS_TYPE":0,"CLASSIFICATION_TYPE":"U","NORAD_CAT_ID":57053,"ELEMENT_SET_NO":999,"REV_AT_EPOCH":12357,"BSTAR":3.4123842e-5,"MEAN_MOTION_DOT":2.57e-6,"MEAN_MOTION_DDOT":0}]
